STARLINK-3301           
1 50169U 21125P   23304.28835866  .00000156  00000+0  27866-4 0  9994
2 50169  53.2155 151.6130 0001365  89.6418 270.4730 15.08840198106714
STARLINK-3245           
1 50170U 21125Q   23304.31044097  .00006265  00000+0  41137-3 0  9991
2 50170  53.2135 151.5140 0001524  86.5096 273.6070 15.08839137106701
STARLINK-3286           
1 50171U 21125R   23303.86147739 -.00000321  00000+0 -20574-5 0  9991
2 50171  53.2144 153.5279 0001468  92.4028 267.7132 15.08838390106641
STARLINK-3287           
1 50172U 21125S   23304.30307990  .00000479  00000+0  48196-4 0  9990
2 50172  53.2150 151.5484 0001442  89.1479 270.9679 15.08837438106745
STARLINK-3289           
1 50173U 21125T   23304.86704659  .00008549  00000+0  55445-3 0  9995
2 50173  53.2151 139.0825 0001675  84.5197 275.5986 15.08848100103850
STARLINK-3292           
1 50174U 21125U   23304.88819662  .00001309  00000+0  10029-3 0  9995
2 50174  53.2152 148.9203 0001278  93.0717 267.0421 15.08844739106322
STARLINK-3291           
1 50175U 21125V   23304.31412200  .00002173  00000+0  15456-3 0  9990
2 50175  53.2145 151.4957 0001520  88.5721 271.5445 15.08840232106717
STARLINK-3293           
1 50176U 21125W   23304.82563804  .00004251  00000+0  28497-3 0  9992
2 50176  53.2158 149.2024 0001355  83.7308 276.3838 15.08843625103700
STARLINK-3282           
1 50177U 21125X   23304.83667902  .00007532  00000+0  49071-3 0  9994
2 50177  53.2149 149.1517 0001542  88.0205 272.0963 15.08849915106308
STARLINK-3284           
1 50178U 21125Y   23304.31873947  .00002453  00000+0  17213-3 0  9996
2 50178  53.2146 151.3317 0001494  82.3804 277.7358 15.08840155106753
STARLINK-3283           
1 50179U 21125Z   23304.56435957  .00008122  00000+0  52776-3 0  9991
2 50179  53.2150 150.3759 0001292  81.0277 279.0862 15.08844164106753
STARLINK-3265           
1 50180U 21125AA  23304.88179380  .00002219  00000+0  15746-3 0  9990
2 50180  53.2151 148.9592 0001340 104.2256 255.8885 15.08843828103719
STARLINK-3285           
1 50181U 21125AB  23304.60947915  .00001538  00000+0  11467-3 0  9997
2 50181  53.2146 150.1803 0001430  91.1366 268.9790 15.08840988106762
STARLINK-3277           
1 50182U 21125AC  23304.32146232  .00002661  00000+0  18519-3 0  9993
2 50182  53.2150 151.3065 0001459  96.1250 263.9908 15.08842503106759
