[
  {
    "OBJECT_NAME": "STARLINK-3301",
    "OBJECT_ID": "2021-125P",
    "EPOCH": "2023-10-31T06:55:14.188224",
    "MEAN_MOTION": 15.08840198,
    "ECCENTRICITY": 0.0001365,
    "INCLINATION": 53.2155,
    "RA_OF_ASC_NODE": 151.613,
    "ARG_OF_PERICENTER": 89.6418,
    "MEAN_ANOMALY": 270.473,
    "EPHEMERIS_TYPE": 0,
    "CLASSIFICATION_TYPE": "U",
    "NORAD_CAT_ID": 50169,
    "ELEMENT_SET_NO": 999,
    "REV_AT_EPOCH": 10671,
    "BSTAR": 2.7866e-5,
    "MEAN_MOTION_DOT": 1.56e-6,
    "MEAN_MOTION_DDOT": 0
  },
  {
    "OBJECT_NAME": "STARLINK-3245",
    "OBJECT_ID": "2021-125Q",
    "EPOCH": "2023-10-31T07:27:02.099808",
    "MEAN_MOTION": 15.08839137,
    "ECCENTRICITY": 0.0001524,
    "INCLINATION": 53.2135,
    "RA_OF_ASC_NODE": 151.514,
    "ARG_OF_PERICENTER": 86.5096,
    "MEAN_ANOMALY": 273.607,
    "EPHEMERIS_TYPE": 0,
    "CLASSIFICATION_TYPE": "U",
    "NORAD_CAT_ID": 50170,
    "ELEMENT_SET_NO": 999,
    "REV_AT_EPOCH": 10670,
    "BSTAR": 0.00041137,
    "MEAN_MOTION_DOT": 6.265e-5,
    "MEAN_MOTION_DDOT": 0
  },
  {
    "OBJECT_NAME": "STARLINK-3286",
    "OBJECT_ID": "2021-125R",
    "EPOCH": "2023-10-30T20:40:31.646496",
    "MEAN_MOTION": 15.0883839,
    "ECCENTRICITY": 0.0001468,
    "INCLINATION": 53.2144,
    "RA_OF_ASC_NODE": 153.5279,
    "ARG_OF_PERICENTER": 92.4028,
    "MEAN_ANOMALY": 267.7132,
    "EPHEMERIS_TYPE": 0,
    "CLASSIFICATION_TYPE": "U",
    "NORAD_CAT_ID": 50171,
    "ELEMENT_SET_NO": 999,
    "REV_AT_EPOCH": 10664,
    "BSTAR": -2.0574e-6,
    "MEAN_MOTION_DOT": -3.21e-6,
    "MEAN_MOTION_DDOT": 0
  },
  {
    "OBJECT_NAME": "STARLINK-3287",
    "OBJECT_ID": "2021-125S",
    "EPOCH": "2023-10-31T07:16:26.103360",
    "MEAN_MOTION": 15.08837438,
    "ECCENTRICITY": 0.0001442,
    "INCLINATION": 53.215,
    "RA_OF_ASC_NODE": 151.5484,
    "ARG_OF_PERICENTER": 89.1479,
    "MEAN_ANOMALY": 270.9679,
    "EPHEMERIS_TYPE": 0,
    "CLASSIFICATION_TYPE": "U",
    "NORAD_CAT_ID": 50172,
    "ELEMENT_SET_NO": 999,
    "REV_AT_EPOCH": 10674,
    "BSTAR": 4.8196e-5,
    "MEAN_MOTION_DOT": 4.79e-6,
    "MEAN_MOTION_DDOT": 0
  },
  {
    "OBJECT_NAME": "STARLINK-3289",
    "OBJECT_ID": "2021-125T",
    "EPOCH": "2023-10-31T20:48:32.825376",
    "MEAN_MOTION": 15.088481,
    "ECCENTRICITY": 0.0001675,
    "INCLINATION": 53.2151,
    "RA_OF_ASC_NODE": 139.0825,
    "ARG_OF_PERICENTER": 84.5197,
    "MEAN_ANOMALY": 275.5986,
    "EPHEMERIS_TYPE": 0,
    "CLASSIFICATION_TYPE": "U",
    "NORAD_CAT_ID": 50173,
    "ELEMENT_SET_NO": 999,
    "REV_AT_EPOCH": 10385,
    "BSTAR": 0.00055445,
    "MEAN_MOTION_DOT": 8.549e-5,
    "MEAN_MOTION_DDOT": 0
  },
  {
    "OBJECT_NAME": "STARLINK-3292",
    "OBJECT_ID": "2021-125U",
    "EPOCH": "2023-10-31T21:19:00.187968",
    "MEAN_MOTION": 15.08844739,
    "ECCENTRICITY": 0.0001278,
    "INCLINATION": 53.2152,
    "RA_OF_ASC_NODE": 148.9203,
    "ARG_OF_PERICENTER": 93.0717,
    "MEAN_ANOMALY": 267.0421,
    "EPHEMERIS_TYPE": 0,
    "CLASSIFICATION_TYPE": "U",
    "NORAD_CAT_ID": 50174,
    "ELEMENT_SET_NO": 999,
    "REV_AT_EPOCH": 10632,
    "BSTAR": 0.00010029,
    "MEAN_MOTION_DOT": 1.309e-5,
    "MEAN_MOTION_DDOT": 0
  },
  {
    "OBJECT_NAME": "STARLINK-3291",
    "OBJECT_ID": "2021-125V",
    "EPOCH": "2023-10-31T07:32:20.140800",
    "MEAN_MOTION": 15.08840232,
    "ECCENTRICITY": 0.000152,
    "INCLINATION": 53.2145,
    "RA_OF_ASC_NODE": 151.4957,
    "ARG_OF_PERICENTER": 88.5721,
    "MEAN_ANOMALY": 271.5445,
    "EPHEMERIS_TYPE": 0,
    "CLASSIFICATION_TYPE": "U",
    "NORAD_CAT_ID": 50175,
    "ELEMENT_SET_NO": 999,
    "REV_AT_EPOCH": 10671,
    "BSTAR": 0.00015456,
    "MEAN_MOTION_DOT": 2.173e-5,
    "MEAN_MOTION_DDOT": 0
  },
  {
    "OBJECT_NAME": "STARLINK-3293",
    "OBJECT_ID": "2021-125W",
    "EPOCH": "2023-10-31T19:48:55.126656",
    "MEAN_MOTION": 15.08843625,
    "ECCENTRICITY": 0.0001355,
    "INCLINATION": 53.2158,
    "RA_OF_ASC_NODE": 149.2024,
    "ARG_OF_PERICENTER": 83.7308,
    "MEAN_ANOMALY": 276.3838,
    "EPHEMERIS_TYPE": 0,
    "CLASSIFICATION_TYPE": "U",
    "NORAD_CAT_ID": 50176,
    "ELEMENT_SET_NO": 999,
    "REV_AT_EPOCH": 10370,
    "BSTAR": 0.00028497,
    "MEAN_MOTION_DOT": 4.251e-5,
    "MEAN_MOTION_DDOT": 0
  },
  {
    "OBJECT_NAME": "STARLINK-3282",
    "OBJECT_ID": "2021-125X",
    "EPOCH": "2023-10-31T20:04:49.067328",
    "MEAN_MOTION": 15.08849915,
    "ECCENTRICITY": 0.0001542,
    "INCLINATION": 53.2149,
    "RA_OF_ASC_NODE": 149.1517,
    "ARG_OF_PERICENTER": 88.0205,
    "MEAN_ANOMALY": 272.0963,
    "EPHEMERIS_TYPE": 0,
    "CLASSIFICATION_TYPE": "U",
    "NORAD_CAT_ID": 50177,
    "ELEMENT_SET_NO": 999,
    "REV_AT_EPOCH": 10630,
    "BSTAR": 0.00049071,
    "MEAN_MOTION_DOT": 7.532e-5,
    "MEAN_MOTION_DDOT": 0
  },
  {
    "OBJECT_NAME": "STARLINK-3284",
    "OBJECT_ID": "2021-125Y",
    "EPOCH": "2023-10-31T07:38:59.090208",
    "MEAN_MOTION": 15.08840155,
    "ECCENTRICITY": 0.0001494,
    "INCLINATION": 53.2146,
    "RA_OF_ASC_NODE": 151.3317,
    "ARG_OF_PERICENTER": 82.3804,
    "MEAN_ANOMALY": 277.7358,
    "EPHEMERIS_TYPE": 0,
    "CLASSIFICATION_TYPE": "U",
    "NORAD_CAT_ID": 50178,
    "ELEMENT_SET_NO": 999,
    "REV_AT_EPOCH": 10675,
    "BSTAR": 0.00017213,
    "MEAN_MOTION_DOT": 2.453e-5,
    "MEAN_MOTION_DDOT": 0
  },
  {
    "OBJECT_NAME": "STARLINK-3283",
    "OBJECT_ID": "2021-125Z",
    "EPOCH": "2023-10-31T13:32:40.666848",
    "MEAN_MOTION": 15.08844164,
    "ECCENTRICITY": 0.0001292,
    "INCLINATION": 53.215,
    "RA_OF_ASC_NODE": 150.3759,
    "ARG_OF_PERICENTER": 81.0277,
    "MEAN_ANOMALY": 279.0862,
    "EPHEMERIS_TYPE": 0,
    "CLASSIFICATION_TYPE": "U",
    "NORAD_CAT_ID": 50179,
    "ELEMENT_SET_NO": 999,
    "REV_AT_EPOCH": 10675,
    "BSTAR": 0.00052776,
    "MEAN_MOTION_DOT": 8.122e-5,
    "MEAN_MOTION_DDOT": 0
  },
  {
    "OBJECT_NAME": "STARLINK-3265",
    "OBJECT_ID": "2021-125AA",
    "EPOCH": "2023-10-31T21:09:46.984320",
    "MEAN_MOTION": 15.08843828,
    "ECCENTRICITY": 0.000134,
    "INCLINATION": 53.2151,
    "RA_OF_ASC_NODE": 148.9592,
    "ARG_OF_PERICENTER": 104.2256,
    "MEAN_ANOMALY": 255.8885,
    "EPHEMERIS_TYPE": 0,
    "CLASSIFICATION_TYPE": "U",
    "NORAD_CAT_ID": 50180,
    "ELEMENT_SET_NO": 999,
    "REV_AT_EPOCH": 10371,
    "BSTAR": 0.00015746,
    "MEAN_MOTION_DOT": 2.219e-5,
    "MEAN_MOTION_DDOT": 0
  },
  {
    "OBJECT_NAME": "STARLINK-3285",
    "OBJECT_ID": "2021-125AB",
    "EPOCH": "2023-10-31T14:37:38.998560",
    "MEAN_MOTION": 15.08840988,
    "ECCENTRICITY": 0.000143,
    "INCLINATION": 53.2146,
    "RA_OF_ASC_NODE": 150.1803,
    "ARG_OF_PERICENTER": 91.1366,
    "MEAN_ANOMALY": 268.979,
    "EPHEMERIS_TYPE": 0,
    "CLASSIFICATION_TYPE": "U",
    "NORAD_CAT_ID": 50181,
    "ELEMENT_SET_NO": 999,
    "REV_AT_EPOCH": 10676,
    "BSTAR": 0.00011467,
    "MEAN_MOTION_DOT": 1.538e-5,
    "MEAN_MOTION_DDOT": 0
  },
  {
    "OBJECT_NAME": "STARLINK-3277",
    "OBJECT_ID": "2021-125AC",
    "EPOCH": "2023-10-31T07:42:54.344448",
    "MEAN_MOTION": 15.08842503,
    "ECCENTRICITY": 0.0001459,
    "INCLINATION": 53.215,
    "RA_OF_ASC_NODE": 151.3065,
    "ARG_OF_PERICENTER": 96.125,
    "MEAN_ANOMALY": 263.9908,
    "EPHEMERIS_TYPE": 0,
    "CLASSIFICATION_TYPE": "U",
    "NORAD_CAT_ID": 50182,
    "ELEMENT_SET_NO": 999,
    "REV_AT_EPOCH": 10675,
    "BSTAR": 0.00018519,
    "MEAN_MOTION_DOT": 2.661e-5,
    "MEAN_MOTION_DDOT": 0
  }
]
